CCSDS_OMM_VERS,COMMENT,CREATION_DATE,ORIGINATOR,OBJECT_NAME,OBJECT_ID,CENTER_NAME,REF_FRAME,TIME_SYSTEM,MEAN_ELEMENT_THEORY,EPOCH,MEAN_MOTION,ECCENTRICITY,INCLINATION,RA_OF_ASC_NODE,ARG_OF_PERICENTER,MEAN_ANOMALY,EPHEMERIS_TYPE,CLASSIFICATION_TYPE,NORAD_CAT_ID,ELEMENT_SET_NO,REV_AT_EPOCH,BSTAR,MEAN_MOTION_DOT,MEAN_MOTION_DDOT,SEMIMAJOR_AXIS,PERIOD,APOAPSIS,PERIAPSIS,OBJECT_TYPE,RCS_SIZE,COUNTRY_CODE,LAUNCH_DATE,SITE,DECAY_DATE,FILE,GP_ID,TLE_LINE0,TLE_LINE1,TLE_LINE2
2,GENERATED VIA SPACE-TRACK.ORG API,2022-10-03T14:26:13,18 SPCS,LEASAT 5,1990-002B,EARTH,TEME,UTC,SGP4,2022-10-03T07:16:22.590336,0.9959188,0.0006229,11.4572,358.8195,73.5724,326.1388,0,U,20410,999,10494,0.0,-1.54e-06,0,42356.418,1445.901,36004.666,35951.899,PAYLOAD,LARGE,US,1990-01-09,AFETR,,3590116,214060313,0 LEASAT 5,1 20410U 90002B   22276.30303924 -.00000154  00000-0  00000+0 0  9991,2 20410  11.4572 358.8195 0006229  73.5724 326.1388  0.99591880104943
2,GENERATED VIA SPACE-TRACK.ORG API,2022-10-04T19:02:35,18 SPCS,LEASAT 5,1990-002B,EARTH,TEME,UTC,SGP4,2022-10-04T04:29:02.967360,0.99591662,0.0006218,11.4569,358.8149,73.4316,283.1581,0,U,20410,999,10495,0.0,-1.45e-06,0,42356.479,1445.904,36004.682,35952.007,PAYLOAD,LARGE,US,1990-01-09,AFETR,,3591197,214141666,0 LEASAT 5,1 20410U 90002B   22277.18683990 -.00000145  00000-0  00000-0 0  9993,2 20410  11.4569 358.8149 0006218  73.4316 283.1581  0.99591662104958
2,GENERATED VIA SPACE-TRACK.ORG API,2022-10-05T18:08:02,18 SPCS,LEASAT 5,1990-002B,EARTH,TEME,UTC,SGP4,2022-10-05T04:34:42.808800,0.99591448,0.0006232,11.4567,358.8097,73.3851,283.155,0,U,20410,999,10496,0.0,-1.35e-06,0,42356.54,1445.907,36004.802,35952.008,PAYLOAD,LARGE,US,1990-01-09,AFETR,,3592692,214226061,0 LEASAT 5,1 20410U 90002B   22278.19077325 -.00000135  00000-0  00000-0 0  9993,2 20410  11.4567 358.8097 0006232  73.3851 283.1550  0.99591448104966
2,GENERATED VIA SPACE-TRACK.ORG API,2022-10-06T20:29:43,18 SPCS,LEASAT 5,1990-002B,EARTH,TEME,UTC,SGP4,2022-10-06T04:40:17.002272,0.99591237,0.0006197,11.4564,358.8047,73.0706,283.3949,0,U,20410,999,10497,0.0,-1.24e-06,0,42356.6,1445.91,36004.713,35952.216,PAYLOAD,LARGE,US,1990-01-09,AFETR,,3593749,214296710,0 LEASAT 5,1 20410U 90002B   22279.19464123 -.00000124  00000-0  00000-0 0  9998,2 20410  11.4564 358.8047 0006197  73.0706 283.3949  0.99591237104975
2,GENERATED VIA SPACE-TRACK.ORG API,2022-10-06T22:56:12,18 SPCS,LEASAT 5,1990-002B,EARTH,TEME,UTC,SGP4,2022-10-06T04:40:17.002272,0.99591237,0.0006197,11.4564,358.8047,73.0706,283.3949,0,U,20410,999,10497,0.0,-1.25e-06,0,42356.6,1445.91,36004.713,35952.216,PAYLOAD,LARGE,US,1990-01-09,AFETR,,3593882,214319396,0 LEASAT 5,1 20410U 90002B   22279.19464123 -.00000125  00000-0  00000+0 0  9998,2 20410  11.4564 358.8047 0006197  73.0706 283.3949  0.99591237104975
2,GENERATED VIA SPACE-TRACK.ORG API,2022-10-07T18:38:24,18 SPCS,LEASAT 5,1990-002B,EARTH,TEME,UTC,SGP4,2022-10-07T04:46:01.119648,0.99591077,0.0006185,11.4562,358.7997,72.9165,283.5155,0,U,20410,999,10498,0.0,-1.13e-06,0,42356.645,1445.913,36004.708,35952.313,PAYLOAD,LARGE,US,1990-01-09,AFETR,,3595509,214387183,0 LEASAT 5,1 20410U 90002B   22280.19862407 -.00000113  00000-0  00000-0 0  9995,2 20410  11.4562 358.7997 0006185  72.9165 283.5155  0.99591077104984
2,GENERATED VIA SPACE-TRACK.ORG API,2022-10-10T04:09:56,18 SPCS,LEASAT 5,1990-002B,EARTH,TEME,UTC,SGP4,2022-10-09T14:46:46.577568,0.99590787,0.0006144,11.4555,358.7878,72.5901,70.4951,0,U,20410,999,10501,0.0,-7.8e-07,0,42356.727,1445.917,36004.616,35952.568,PAYLOAD,LARGE,US,1990-01-09,AFETR,,3598879,214586882,0 LEASAT 5,1 20410U 90002B   22282.61581687 -.00000078  00000-0  00000-0 0  9992,2 20410  11.4555 358.7878 0006144  72.5901  70.4951  0.99590787105012
2,GENERATED VIA SPACE-TRACK.ORG API,2022-10-09T22:26:19,18 SPCS,LEASAT 5,1990-002B,EARTH,TEME,UTC,SGP4,2022-10-09T14:46:46.577568,0.99590787,0.0006144,11.4555,358.7878,72.5901,70.4951,0,U,20410,999,10500,0.0,-7.8e-07,0,42356.727,1445.917,36004.616,35952.568,PAYLOAD,LARGE,US,1990-01-09,AFETR,,3598077,214565130,0 LEASAT 5,1 20410U 90002B   22282.61581687 -.00000078  00000-0  00000+0 0  9991,2 20410  11.4555 358.7878 0006144  72.5901  70.4951  0.99590787105001
2,GENERATED VIA SPACE-TRACK.ORG API,2022-10-10T19:48:21,18 SPCS,LEASAT 5,1990-002B,EARTH,TEME,UTC,SGP4,2022-10-10T05:17:47.732640,0.99590733,0.0006149,11.4553,358.7849,72.6559,287.2985,0,U,20410,999,10501,0.0,-6.8e-07,0,42356.743,1445.918,36004.653,35952.563,PAYLOAD,LARGE,US,1990-01-09,AFETR,,3600948,214658236,0 LEASAT 5,1 20410U 90002B   22283.22069135 -.00000068  00000-0  00000-0 0  9998,2 20410  11.4553 358.7849 0006149  72.6559 287.2985  0.99590733105019
2,GENERATED VIA SPACE-TRACK.ORG API,2022-10-11T19:33:09,18 SPCS,LEASAT 5,1990-002B,EARTH,TEME,UTC,SGP4,2022-10-11T08:33:17.761248,0.99590683,0.0006141,11.455,358.7795,72.6542,334.5127,0,U,20410,999,10503,0.0,-4.8e-07,0,42356.757,1445.918,36004.633,35952.611,PAYLOAD,LARGE,US,1990-01-09,AFETR,,3603543,214764149,0 LEASAT 5,1 20410U 90002B   22284.35645557 -.00000048  00000-0  00000-0 0  9999,2 20410  11.4550 358.7795 0006141  72.6542 334.5127  0.99590683105030
2,GENERATED VIA SPACE-TRACK.ORG API,2022-10-12T06:36:13,18 SPCS,LEASAT 5,1990-002B,EARTH,TEME,UTC,SGP4,2022-10-12T04:18:35.253216,0.99590668,0.0006132,11.4547,358.7755,72.6762,269.6084,0,U,20410,999,10503,0.0,-3.4e-07,0,42356.761,1445.919,36004.599,35952.653,PAYLOAD,LARGE,US,1990-01-09,AFETR,,3604640,214828860,0 LEASAT 5,1 20410U 90002B   22285.17957469 -.00000034  00000-0  00000+0 0  9992,2 20410  11.4547 358.7755 0006132  72.6762 269.6084  0.99590668105039
2,GENERATED VIA SPACE-TRACK.ORG API,2022-10-12T18:00:15,18 SPCS,LEASAT 5,1990-002B,EARTH,TEME,UTC,SGP4,2022-10-12T11:09:00.761760,0.99590666,0.0006133,11.4546,358.7742,72.7463,11.7272,0,U,20410,999,10504,0.0,-2.9e-07,0,42356.762,1445.919,36004.604,35952.649,PAYLOAD,LARGE,US,1990-01-09,AFETR,,3606148,214864502,0 LEASAT 5,1 20410U 90002B   22285.46459215 -.00000029  00000-0  00000-0 0  9995,2 20410  11.4546 358.7742 0006133  72.7463  11.7272  0.99590666105048
2,GENERATED VIA SPACE-TRACK.ORG API,2022-10-13T22:22:33,18 SPCS,LEASAT 5,1990-002B,EARTH,TEME,UTC,SGP4,2022-10-13T09:58:15.782880,0.99590687,0.0006117,11.4543,358.7697,72.7778,352.6161,0,U,20410,999,10505,0.0,-1.3e-07,0,42356.756,1445.918,36004.53,35952.711,PAYLOAD,LARGE,US,1990-01-09,AFETR,,3609209,214977070,0 LEASAT 5,1 20410U 90002B   22286.41546045 -.00000013  00000-0  00000-0 0  9992,2 20410  11.4543 358.7697 0006117  72.7778 352.6161  0.99590687105053
2,GENERATED VIA SPACE-TRACK.ORG API,2022-10-14T02:17:06,18 SPCS,LEASAT 5,1990-002B,EARTH,TEME,UTC,SGP4,2022-10-13T15:41:45.695904,0.99590689,0.0006104,11.4542,358.7685,72.7674,78.1518,0,U,20410,999,10505,0.0,-9e-08,0,42356.755,1445.918,36004.475,35952.766,PAYLOAD,LARGE,US,1990-01-09,AFETR,,3609636,215010387,0 LEASAT 5,1 20410U 90002B   22286.65400111 -.00000009  00000-0  00000-0 0  9996,2 20410  11.4542 358.7685 0006104  72.7674  78.1518  0.99590689105058
2,GENERATED VIA SPACE-TRACK.ORG API,2022-10-14T06:46:12,18 SPCS,LEASAT 5,1990-002B,EARTH,TEME,UTC,SGP4,2022-10-14T05:04:20.811072,0.99590708,0.0006091,11.4541,358.7659,72.7182,278.0309,0,U,20410,999,10505,0.0,-1e-08,0,42356.75,1445.918,36004.414,35952.815,PAYLOAD,LARGE,US,1990-01-09,AFETR,,3609786,215032801,0 LEASAT 5,1 20410U 90002B   22287.21135198 -.00000001  00000-0  00000+0 0  9990,2 20410  11.4541 358.7659 0006091  72.7182 278.0309  0.99590708105058
2,GENERATED VIA SPACE-TRACK.ORG API,2022-10-14T19:05:59,18 SPCS,LEASAT 5,1990-002B,EARTH,TEME,UTC,SGP4,2022-10-14T07:53:02.084640,0.99590709,0.0006093,11.454,358.7654,72.7509,319.9984,0,U,20410,999,10506,0.0,1e-08,0,42356.75,1445.918,36004.423,35952.807,PAYLOAD,LARGE,US,1990-01-09,AFETR,,3611991,215084261,0 LEASAT 5,1 20410U 90002B   22287.32849635  .00000001  00000-0  00000-0 0  9990,2 20410  11.4540 358.7654 0006093  72.7509 319.9984  0.99590709105063
2,GENERATED VIA SPACE-TRACK.ORG API,2022-10-15T19:37:08,18 SPCS,LEASAT 5,1990-002B,EARTH,TEME,UTC,SGP4,2022-10-15T08:36:35.299296,0.99590793,0.000607,11.4537,358.7605,72.7945,329.3351,0,U,20410,999,10507,0.0,1.6e-07,0,42356.726,1445.917,36004.301,35952.88,PAYLOAD,LARGE,US,1990-01-09,AFETR,,3614916,215188244,0 LEASAT 5,1 20410U 90002B   22288.35874189  .00000016  00000-0  00000-0 0  9992,2 20410  11.4537 358.7605 0006070  72.7945 329.3351  0.99590793105071
2,GENERATED VIA SPACE-TRACK.ORG API,2022-10-16T04:19:25,18 SPCS,LEASAT 5,1990-002B,EARTH,TEME,UTC,SGP4,2022-10-15T15:00:15.543360,0.99590825,0.0006065,11.4536,358.7593,72.8992,64.7583,0,U,20410,999,10507,0.0,1.9e-07,0,42356.717,1445.916,36004.271,35952.892,PAYLOAD,LARGE,US,1990-01-09,AFETR,,3615679,215230177,0 LEASAT 5,1 20410U 90002B   22288.62517990  .00000019  00000-0  00000-0 0  9999,2 20410  11.4536 358.7593 0006065  72.8992  64.7583  0.99590825105076
2,GENERATED VIA SPACE-TRACK.ORG API,2022-10-16T19:08:30,18 SPCS,LEASAT 5,1990-002B,EARTH,TEME,UTC,SGP4,2022-10-16T05:36:08.484192,0.9959087,0.0006047,11.4534,358.7564,72.8449,282.8921,0,U,20410,999,10507,0.0,2.7e-07,0,42356.704,1445.916,36004.182,35952.956,PAYLOAD,LARGE,US,1990-01-09,AFETR,,3617121,215286990,0 LEASAT 5,1 20410U 90002B   22289.23343153  .00000027  00000-0  00000-0 0  9994,2 20410  11.4534 358.7564 0006047  72.8449 282.8921  0.99590870105078
2,GENERATED VIA SPACE-TRACK.ORG API,2022-10-16T14:36:13,18 SPCS,LEASAT 5,1990-002B,EARTH,TEME,UTC,SGP4,2022-10-16T05:36:08.484192,0.9959087,0.0006047,11.4534,358.7564,72.8449,282.8921,0,U,20410,999,10507,0.0,2.7e-07,0,42356.704,1445.916,36004.182,35952.956,PAYLOAD,LARGE,US,1990-01-09,AFETR,,3616573,215267307,0 LEASAT 5,1 20410U 90002B   22289.23343153  .00000027  00000-0  00000+0 0  9993,2 20410  11.4534 358.7564 0006047  72.8449 282.8921  0.99590870105078
